{ "type": "FeatureCollection", "features": [ { "type": "Feature", "geometry": { "type": "Point", "coordinates": [ 21.4380987, 41.9994486 ] }, "properties": { "name": "Hotel De KOKA", "email": "info@hoteldekoka.mk", "phone": "+38923112200", "rooms": "36", "stars": "3", "smoking": "separated", "tourism": "hotel", "website": "www.hoteldekoka.mk", "operator": "Hotel De KOKA", "addr:city": "skopje", "addr:street": "Gotse Deltchev", "addr:city:en": "Skopje", "addr:country": "MK", "payment:cash": "yes", "payment:visa": "yes", "addr:postcode": "1000", "payment:cards": "yes", "addr:street:mk": "бул. Гоце Делчев", "internet_access": "wlan", "payment:maestro": "yes", "addr:housenumber": "5", "payment:visa_debit": "yes", "internet_access:fee": "yes", "payment:debit_cards": "yes", "payment:visa_electron": "yes", "payment:american_express": "yes" } }, { "type": "Feature", "geometry": { "type": "LineString", "coordinates": [ [ 21.4365333, 41.9944713 ], [ 21.4363485, 41.9945267 ], [ 21.4362493, 41.9943437 ], [ 21.4361458, 41.9943747 ], [ 21.4360251, 41.9944109 ], [ 21.4360426, 41.9944431 ], [ 21.4359379, 41.9944745 ], [ 21.4359117, 41.9944263 ], [ 21.4354569, 41.9945625 ], [ 21.435589, 41.994806 ], [ 21.435983, 41.994688 ], [ 21.4360483, 41.9946684 ], [ 21.4359967, 41.9945734 ], [ 21.4360997, 41.9945426 ], [ 21.436267, 41.994851 ], [ 21.4365059, 41.9947794 ], [ 21.4364376, 41.9946535 ], [ 21.4366049, 41.9946034 ], [ 21.4365864, 41.9945693 ], [ 21.436557, 41.9945149 ], [ 21.4365333, 41.9944713 ] ] }, "properties": { "fax": "+389 2 3115503", "name": "Holiday Inn Skopje", "email": "hiskopje@holiday-inn.com.mk", "phone": "+389 2 3292929", "rooms": "178", "stars": "4", "name:en": "Holiday Inn", "name:mk": "Холидеј Ин", "smoking": "separated", "tourism": "hotel", "website": "https://www.holiday-inn.com/skopje", "building": "hotel", "operator": "Holiday Inn", "addr:city": "Cкoпje", "wheelchair": "yes", "addr:street": "Моша Пијаде", "addr:city:en": "Skopje", "addr:country": "MK", "payment:visa": "yes", "addr:postcode": "1000", "opening_hours": "24/7", "addr:street:en": "Mosa Pijade", "brand:wikipedia": "mk:Холидеј Ин", "building:levels": "9", "internet_access": "wlan", "addr:housenumber": "2", "payment:mastercard": "yes", "internet_access:fee": "no", "payment:diners_club": "yes", "payment:american_express": "yes" } }, { "type": "Feature", "geometry": { "type": "LineString", "coordinates": [ [ 21.4344644, 41.9974124 ], [ 21.4344196, 41.9973755 ], [ 21.4343571, 41.9973371 ], [ 21.4344293, 41.9971761 ], [ 21.4345478, 41.9972266 ], [ 21.4345353, 41.9972491 ], [ 21.4346323, 41.9972798 ], [ 21.4345895, 41.9973595 ], [ 21.4346179, 41.9973846 ], [ 21.4348586, 41.9973532 ], [ 21.4348893, 41.9974734 ], [ 21.4345449, 41.9975182 ], [ 21.4345153, 41.9974641 ], [ 21.4344644, 41.9974124 ] ] }, "properties": { "fax": "+389 2 3244901", "name": "Hotel Stone Bridge", "email": "info@stonebridge-hotel.com", "phone": "+389 2 3244900", "rooms": "40", "stars": "5", "tourism": "hotel", "website": "http://stonebridge-hotel.com/", "building": "hotel", "addr:city": "Cкoпje", "addr:street": "Кеј Димитар Влахов", "addr:city:en": "Skopje", "addr:country": "MK", "addr:postcode": "1000", "addr:street:en": "Kej Dimitar Vlahov", "internet_access": "yes", "addr:housenumber": "1", "internet_access:fee": "no" } }, { "type": "Feature", "geometry": { "type": "LineString", "coordinates": [ [ 21.4073652, 42.002076 ], [ 21.407758, 42.0020228 ], [ 21.4077259, 42.001892 ], [ 21.4076833, 42.0017224 ], [ 21.4074096, 42.0017603 ], [ 21.4073563, 42.0017973 ], [ 21.4073298, 42.0018321 ], [ 21.4073149, 42.0018709 ], [ 21.4073652, 42.002076 ] ] }, "properties": { "fax": "+389 2 3088389", "name": "Хотел Карпош", "email": "hotelkarpos@hotelkarpos.com.mk", "phone": "+389 2 3088388", "stars": "4", "tourism": "hotel", "website": "http://www.hotelkarpos.com.mk", "building": "yes", "int_name": "Karposh", "addr:city": "Cкoпje", "wheelchair": "yes", "addr:street": "Шекспирова", "addr:city:en": "Skopje", "addr:country": "MK", "addr:postcode": "1000", "internet_access": "yes", "internet_access:fee": "no" } }, { "type": "Feature", "geometry": { "type": "MultiPolygon", "coordinates": [ [ [ [ 21.4354569, 41.9945625 ], [ 21.4359117, 41.9944263 ], [ 21.4359379, 41.9944745 ], [ 21.4360426, 41.9944431 ], [ 21.4360251, 41.9944109 ], [ 21.4361458, 41.9943747 ], [ 21.4362493, 41.9943437 ], [ 21.4363485, 41.9945267 ], [ 21.4365333, 41.9944713 ], [ 21.436557, 41.9945149 ], [ 21.4365864, 41.9945693 ], [ 21.4366049, 41.9946034 ], [ 21.4364376, 41.9946535 ], [ 21.4365059, 41.9947794 ], [ 21.436267, 41.994851 ], [ 21.4360997, 41.9945426 ], [ 21.4359967, 41.9945734 ], [ 21.4360483, 41.9946684 ], [ 21.435983, 41.994688 ], [ 21.435589, 41.994806 ], [ 21.4354569, 41.9945625 ] ] ] ] }, "properties": { "fax": "+389 2 3115503", "name": "Holiday Inn Skopje", "email": "hiskopje@holiday-inn.com.mk", "phone": "+389 2 3292929", "rooms": "178", "stars": "4", "name:en": "Holiday Inn", "name:mk": "Холидеј Ин", "smoking": "separated", "tourism": "hotel", "website": "https://www.holiday-inn.com/skopje", "building": "hotel", "operator": "Holiday Inn", "addr:city": "Cкoпje", "wheelchair": "yes", "addr:street": "Моша Пијаде", "addr:city:en": "Skopje", "addr:country": "MK", "payment:visa": "yes", "addr:postcode": "1000", "opening_hours": "24/7", "addr:street:en": "Mosa Pijade", "brand:wikipedia": "mk:Холидеј Ин", "building:levels": "9", "internet_access": "wlan", "addr:housenumber": "2", "payment:mastercard": "yes", "internet_access:fee": "no", "payment:diners_club": "yes", "payment:american_express": "yes" } }, { "type": "Feature", "geometry": { "type": "MultiPolygon", "coordinates": [ [ [ [ 21.4343571, 41.9973371 ], [ 21.4344293, 41.9971761 ], [ 21.4345478, 41.9972266 ], [ 21.4345353, 41.9972491 ], [ 21.4346323, 41.9972798 ], [ 21.4345895, 41.9973595 ], [ 21.4346179, 41.9973846 ], [ 21.4348586, 41.9973532 ], [ 21.4348893, 41.9974734 ], [ 21.4345449, 41.9975182 ], [ 21.4345153, 41.9974641 ], [ 21.4344644, 41.9974124 ], [ 21.4344196, 41.9973755 ], [ 21.4343571, 41.9973371 ] ] ] ] }, "properties": { "fax": "+389 2 3244901", "name": "Hotel Stone Bridge", "email": "info@stonebridge-hotel.com", "phone": "+389 2 3244900", "rooms": "40", "stars": "5", "tourism": "hotel", "website": "http://stonebridge-hotel.com/", "building": "hotel", "addr:city": "Cкoпje", "addr:street": "Кеј Димитар Влахов", "addr:city:en": "Skopje", "addr:country": "MK", "addr:postcode": "1000", "addr:street:en": "Kej Dimitar Vlahov", "internet_access": "yes", "addr:housenumber": "1", "internet_access:fee": "no" } }, { "type": "Feature", "geometry": { "type": "MultiPolygon", "coordinates": [ [ [ [ 21.4073149, 42.0018709 ], [ 21.4073298, 42.0018321 ], [ 21.4073563, 42.0017973 ], [ 21.4074096, 42.0017603 ], [ 21.4076833, 42.0017224 ], [ 21.4077259, 42.001892 ], [ 21.407758, 42.0020228 ], [ 21.4073652, 42.002076 ], [ 21.4073149, 42.0018709 ] ] ] ] }, "properties": { "fax": "+389 2 3088389", "name": "Хотел Карпош", "email": "hotelkarpos@hotelkarpos.com.mk", "phone": "+389 2 3088388", "stars": "4", "tourism": "hotel", "website": "http://www.hotelkarpos.com.mk", "building": "yes", "int_name": "Karposh", "addr:city": "Cкoпje", "wheelchair": "yes", "addr:street": "Шекспирова", "addr:city:en": "Skopje", "addr:country": "MK", "addr:postcode": "1000", "internet_access": "yes", "internet_access:fee": "no" } }, { "type": "Feature", "geometry": { "type": "LineString", "coordinates": [ [ 21.439089, 41.9966717 ], [ 21.4392659, 41.9966749 ], [ 21.4392683, 41.9966 ], [ 21.4390914, 41.9965968 ], [ 21.439089, 41.9966717 ] ] }, "properties": { "name": "Opera House Hotel Skopje", "email": "info@operahousehotel.mk", "phone": "+389 (0)2 3 22 50 07", "stars": "4", "tourism": "hotel", "website": "http://operahousehotel.mk", "building": "hotel", "addr:city": "Cкoпje", "addr:street": "1733, 24", "addr:city:en": "Skopje", "addr:country": "MK", "addr:postcode": "1000", "building:levels": "6", "internet_access": "wlan", "addr:housenumber": "1737", "internet_access:fee": "no" } }, { "type": "Feature", "geometry": { "type": "LineString", "coordinates": [ [ 21.4039805, 41.9968559 ], [ 21.4040379, 41.9971409 ], [ 21.404238, 41.9971188 ], [ 21.4041801, 41.9968335 ], [ 21.4039805, 41.9968559 ] ] }, "properties": { "fax": "+38923080850", "name": "ТЦЦ Гранд Плаза", "email": "info@tccgrandplaza.com", "phone": "+38923080850", "stars": "4", "name:en": "TCC Grand Plaza", "tourism": "hotel", "website": "https://tccgrandplaza.com/", "building": "hotel", "addr:city": "Cкoпje", "wheelchair": "yes", "addr:street": "Булевар 8ми Септември", "addr:city:en": "Skopje", "addr:country": "MK", "surveillance": "indoor;outdoor", "addr:postcode": "1000", "addr:street:en": "Boulevard 8th September", "building:levels": "7", "internet_access": "wlan", "addr:housenumber": "2", "surveillance:type": "camera", "surveillance:zone": "building", "internet_access:fee": "no" } }, { "type": "Feature", "geometry": { "type": "LineString", "coordinates": [ [ 21.4258025, 41.9858863 ], [ 21.4258974, 41.9860162 ], [ 21.4260613, 41.9859501 ], [ 21.4259664, 41.9858201 ], [ 21.4258025, 41.9858863 ] ] }, "properties": { "name": "Хотел Леонардо", "email": "info@hotel-leonardo.com.mk", "phone": "+389 2 3177517", "stars": "3", "tourism": "hotel", "website": "http://www.hotel-leonardo.com.mk/", "building": "hotel", "addr:city": "Cкoпje", "addr:street": "Партенија Зографски", "addr:city:en": "Skopje", "addr:country": "MK", "addr:postcode": "1000", "addr:street:en": "Partenij Zografski", "internet_access": "wlan", "addr:housenumber": "19", "internet_access:fee": "no" } }, { "type": "Feature", "geometry": { "type": "MultiPolygon", "coordinates": [ [ [ [ 21.439089, 41.9966717 ], [ 21.4390914, 41.9965968 ], [ 21.4392683, 41.9966 ], [ 21.4392659, 41.9966749 ], [ 21.439089, 41.9966717 ] ] ] ] }, "properties": { "name": "Opera House Hotel Skopje", "email": "info@operahousehotel.mk", "phone": "+389 (0)2 3 22 50 07", "stars": "4", "tourism": "hotel", "website": "http://operahousehotel.mk", "building": "hotel", "addr:city": "Cкoпje", "addr:street": "1733, 24", "addr:city:en": "Skopje", "addr:country": "MK", "addr:postcode": "1000", "building:levels": "6", "internet_access": "wlan", "addr:housenumber": "1737", "internet_access:fee": "no" } }, { "type": "Feature", "geometry": { "type": "MultiPolygon", "coordinates": [ [ [ [ 21.4039805, 41.9968559 ], [ 21.4041801, 41.9968335 ], [ 21.404238, 41.9971188 ], [ 21.4040379, 41.9971409 ], [ 21.4039805, 41.9968559 ] ] ] ] }, "properties": { "fax": "+38923080850", "name": "ТЦЦ Гранд Плаза", "email": "info@tccgrandplaza.com", "phone": "+38923080850", "stars": "4", "name:en": "TCC Grand Plaza", "tourism": "hotel", "website": "https://tccgrandplaza.com/", "building": "hotel", "addr:city": "Cкoпje", "wheelchair": "yes", "addr:street": "Булевар 8ми Септември", "addr:city:en": "Skopje", "addr:country": "MK", "surveillance": "indoor;outdoor", "addr:postcode": "1000", "addr:street:en": "Boulevard 8th September", "building:levels": "7", "internet_access": "wlan", "addr:housenumber": "2", "surveillance:type": "camera", "surveillance:zone": "building", "internet_access:fee": "no" } }, { "type": "Feature", "geometry": { "type": "MultiPolygon", "coordinates": [ [ [ [ 21.4258025, 41.9858863 ], [ 21.4259664, 41.9858201 ], [ 21.4260613, 41.9859501 ], [ 21.4258974, 41.9860162 ], [ 21.4258025, 41.9858863 ] ] ] ] }, "properties": { "name": "Хотел Леонардо", "email": "info@hotel-leonardo.com.mk", "phone": "+389 2 3177517", "stars": "3", "tourism": "hotel", "website": "http://www.hotel-leonardo.com.mk/", "building": "hotel", "addr:city": "Cкoпje", "addr:street": "Партенија Зографски", "addr:city:en": "Skopje", "addr:country": "MK", "addr:postcode": "1000", "addr:street:en": "Partenij Zografski", "internet_access": "wlan", "addr:housenumber": "19", "internet_access:fee": "no" } }, { "type": "Feature", "geometry": { "type": "LineString", "coordinates": [ [ 21.4364978, 42.0014557 ], [ 21.4364309, 42.0016971 ], [ 21.4363292, 42.0018331 ], [ 21.4362865, 42.0018236 ], [ 21.4362017, 42.001968 ], [ 21.4361198, 42.002046 ], [ 21.436036, 42.0019843 ], [ 21.4360691, 42.0019249 ], [ 21.4360576, 42.001919 ], [ 21.4362132, 42.0016545 ], [ 21.4359763, 42.0016179 ], [ 21.4360638, 42.0014547 ], [ 21.4360906, 42.0014017 ], [ 21.4364978, 42.0014557 ] ] }, "properties": { "name": "Bushi Resort & Spa", "email": "info@bushiresort.com", "phone": "+389 2 312 5130", "stars": "5", "tourism": "hotel", "website": "http://bushiresort.com/info/", "building": "yes", "operator": "Bushi Resort & Spa", "addr:city": "Skopje", "addr:place": "Samoilova", "addr:street": "Samoilova Kjurchiska", "addr:country": "MK", "addr:postcode": "1000", "addr:housenumber": "21" } }, { "type": "Feature", "geometry": { "type": "MultiPolygon", "coordinates": [ [ [ [ 21.4359763, 42.0016179 ], [ 21.4360638, 42.0014547 ], [ 21.4360906, 42.0014017 ], [ 21.4364978, 42.0014557 ], [ 21.4364309, 42.0016971 ], [ 21.4363292, 42.0018331 ], [ 21.4362865, 42.0018236 ], [ 21.4362017, 42.001968 ], [ 21.4361198, 42.002046 ], [ 21.436036, 42.0019843 ], [ 21.4360691, 42.0019249 ], [ 21.4360576, 42.001919 ], [ 21.4362132, 42.0016545 ], [ 21.4359763, 42.0016179 ] ] ] ] }, "properties": { "name": "Bushi Resort & Spa", "email": "info@bushiresort.com", "phone": "+389 2 312 5130", "stars": "5", "tourism": "hotel", "website": "http://bushiresort.com/info/", "building": "yes", "operator": "Bushi Resort & Spa", "addr:city": "Skopje", "addr:place": "Samoilova", "addr:street": "Samoilova Kjurchiska", "addr:country": "MK", "addr:postcode": "1000", "addr:housenumber": "21" } }, { "type": "Feature", "geometry": { "type": "LineString", "coordinates": [ [ 21.4733223, 41.9906315 ], [ 21.4735315, 41.9905498 ], [ 21.4732579, 41.9901471 ], [ 21.4725498, 41.9903983 ], [ 21.4727215, 41.9906295 ], [ 21.4731962, 41.9904541 ], [ 21.4733223, 41.9906315 ] ] }, "properties": { "fax": "+389-2-2400801", "name": "DoubleTree by Hilton Skopje", "email": "skopje_info@hilton.com", "phone": "+389-2-2400800", "rooms": "170", "stars": "5", "smoking": "isolated", "tourism": "hotel", "website": "https://www.hilton.com/en/hotels/skpabdi-doubletree-skopje/?WT.mc_id=zVSEC0MK1DT2NaturalSearch3GoogleMyBusiness4luau-dtskopje_Nov5luau6SKPABDI7EN8i1", "building": "yes", "operator": "Hilton", "addr:city": "Cкoпje", "addr:street": "Булевар АСНОМ", "addr:postcode": "1000", "internet_access": "wlan", "addr:housenumber": "17", "contact:facebook": "https://www.facebook.com/hiltonskopje", "contact:linkedin": "https://www.linkedin.com/company/doubletree-by-hilton-skopje", "contact:instagram": "https://www.instagram.com/doubletreebyhiltonskopje" } }, { "type": "Feature", "geometry": { "type": "MultiPolygon", "coordinates": [ [ [ [ 21.4725498, 41.9903983 ], [ 21.4732579, 41.9901471 ], [ 21.4735315, 41.9905498 ], [ 21.4733223, 41.9906315 ], [ 21.4731962, 41.9904541 ], [ 21.4727215, 41.9906295 ], [ 21.4725498, 41.9903983 ] ] ] ] }, "properties": { "fax": "+389-2-2400801", "name": "DoubleTree by Hilton Skopje", "email": "skopje_info@hilton.com", "phone": "+389-2-2400800", "rooms": "170", "stars": "5", "smoking": "isolated", "tourism": "hotel", "website": "https://www.hilton.com/en/hotels/skpabdi-doubletree-skopje/?WT.mc_id=zVSEC0MK1DT2NaturalSearch3GoogleMyBusiness4luau-dtskopje_Nov5luau6SKPABDI7EN8i1", "building": "yes", "operator": "Hilton", "addr:city": "Cкoпje", "addr:street": "Булевар АСНОМ", "addr:postcode": "1000", "internet_access": "wlan", "addr:housenumber": "17", "contact:facebook": "https://www.facebook.com/hiltonskopje", "contact:linkedin": "https://www.linkedin.com/company/doubletree-by-hilton-skopje", "contact:instagram": "https://www.instagram.com/doubletreebyhiltonskopje" } } ] }
